[{"OBJECT_NAME":"OBJECT C","OBJECT_ID":"2024-024C","EPOCH":"2026-03-09T23:05:51.559584","MEAN_MOTION":15.59218925,"ECCENTRICITY":0.00024071,"INCLINATION":97.3212,"RA_OF_ASC_NODE":154.3938,"ARG_OF_PERICENTER":211.7336,"MEAN_ANOMALY":148.3776,"EPHEMERIS_TYPE":0,"CLASSIFICATION_TYPE":"U","NORAD_CAT_ID":58919,"ELEMENT_SET_NO":999,"REV_AT_EPOCH":11733,"BSTAR":0.0012034335,"MEAN_MOTION_DOT":0.00095223,"MEAN_MOTION_DDOT":0},{"OBJECT_NAME":"HYPERVIEW 1G (RS66S)","OBJECT_ID":"2024-199AP","EPOCH":"2026-03-09T22:47:00.600864","MEAN_MOTION":15.58013725,"ECCENTRICITY":0.00064415,"INCLINATION":97.3083,"RA_OF_ASC_NODE":305.028,"ARG_OF_PERICENTER":283.1837,"MEAN_ANOMALY":76.87,"EPHEMERIS_TYPE":0,"CLASSIFICATION_TYPE":"U","NORAD_CAT_ID":61772,"ELEMENT_SET_NO":999,"REV_AT_EPOCH":11914,"BSTAR":0.0010158871,"MEAN_MOTION_DOT":0.00076691,"MEAN_MOTION_DDOT":0}]
